#dP2024  6 20  0  0  0.00000000      96 __u+U IGS20 FIT  IAC
## 2319 345600.00000000   900.00000000 60481 0.0000000000000
+  128   C01C02C03C04C05C06C07C08C09C10C11C12C13C14C16C19C20
+        C21C22C23C24C25C26C27C28C29C30C32C33C34C35C36C37C38
+        C39C40C41C42C43C44C45C60E02E03E04E05E07E08E09E10E11
+        E12E13E14E15E18E19E21E25E26E27E30E31E33E34E36G01G02
+        G03G04G05G06G07G08G09G10G11G12G13G14G15G16G17G18G19
+        G20G21G22G23G24G25G26G27G28G29G30G31G32J02J03J04J07
+        R01R02R03R04R05R06R07R08R09R10R11R12R13R14R15R16R17
+        R18R19R20R21R22R23R24R25R26  0  0  0  0  0  0  0  0
++        18 17 17 17 17  9 10 10 10 10  9  9  9  8  9  7  7
++         8  8  7  7  7  8  7  7  7  7  7  7  7  8  8  7  9
++         9  9  7  7  7  8  8 18  4  5  4  5  4  4  5  4  4
++         4  4  5  4  5  4  4  5  4  4  4  5  4  5  5  5  4
++         4  4  4  4  4  4  4  4  4  4  4  4  4  4  4  4  4
++         8  4  4  4  4  4  4  4  4  4  4  4  4 10 10 11 18
++         7  6  6  6  6 15  6  6  6 15  6  6  8  6  6  6  6
++         6  7  8  6  6 15  6  8  8  0  0  0  0  0  0  0  0
%c M  cc GPS ccc cccc cccc cccc cccc ccccc ccccc ccccc ccccc
%c cc cc ccc ccc cccc cccc cccc cccc ccccc ccccc ccccc ccccc
%f  0.0000000  0.000000000  0.00000000000  0.000000000000000
%f  0.0000000  0.000000000  0.00000000000  0.000000000000000
%i    0    0    0    0      0      0      0      0         0
%i    0    0    0    0      0      0      0      0         0
/* INFORMATION & ANALYSIS CENTER (IAC)            RAPID DATA
/* S/V CLOCKS ARE ALIGNED TO GNSS TIME                      
/* G:C1WC2W R:C1PC2P E:C1XC5X C:C2IC6I J:C1CC2S             
/* PCV:IGS20_2317 OL/AL:FES2004  NONE     YN ORB:CoN CLK:CoN
*  2024 06 20 20 15  0.00000000
PC01 -34320.393719  24465.849465  -1398.020365    903.261465
PC02   4446.945819  41922.752381  -1146.442499    789.556628
PC03 -14721.978206  39503.334702  -1364.914245    442.883627
PC04 -39643.774621  14352.399701  -1119.104422   -602.623083
PC05  21983.378355  35967.254521   -565.687701   -672.849353
PC06 -18355.246844  34035.102763  16542.024273    521.793680
PC07  -2516.843370  37649.102774  19160.733860   -620.133149
PC08  -6860.516500  19100.476120 -36989.320944   -233.053933
PC09 -10461.551523  32542.216670  24753.860250     81.701657
PC10   3182.967212  39925.489453  14421.216473    -38.781891
PC11 -11162.830491 -11738.900838  22782.985453    623.420978
PC12   2848.807384 -24994.304938  12104.827057   -258.357395
PC13   -162.647160  21852.530617 -35889.546263    438.387838
PC14 -19348.158041 -18953.980064  -6565.651272    911.093135
PC16 -19646.951622  33879.881396  15474.322956   -602.584135
PC19  20696.764684  11518.869449  14803.027173   -914.848501
PC20  15881.297082  22952.500360   -974.518368   -597.356104
PC21   -819.964952 -21496.413552  17767.217707   -968.891403
PC22  13950.544540  -7212.663009  23062.882895     35.266439
PC23 -25330.682115   8566.105460   7999.816164   -789.206805
PC24 -11473.465150 -14150.037468 -21151.762260    898.723684
PC25 -26118.270015  -3301.466791  -9292.889673    430.904897
PC26   9290.529967 -16271.922590 -20684.325109   -308.590860
PC27  -8959.221709  26170.310698  -3691.950892    329.815454
PC28 -17315.979156  18542.343951  11629.452114    253.595238
PC29  16247.678356   2287.734637 -22580.928078    297.664365
PC30   5024.127322  20950.811609 -17738.830133   -108.778353
PC32    948.705205  21476.229168 -17795.162317   -652.356995
PC33 -20764.626426 -11435.156148 -14704.286406   -960.527903
PC34  -6214.854545 -19798.985523  18648.397611    460.050337
PC35  16774.356042 -18872.195380 -11937.196410    333.006345
PC36  26059.985605   3844.412716   9226.406794    115.688941
PC37  -9814.341467  16049.097168  20634.642258   -937.688254
PC38 -14790.960845  19175.577516 -34490.172061    162.498909
PC39 -22163.019780  34450.913525   9459.668135     -8.818367
PC40  -6443.135529  35261.746181  22454.831542    -76.124978
PC41 -14475.790640   6446.211748 -22917.986194   -960.688189
PC42 -14866.830305 -23434.712068   2755.193258   -447.426654
PC43 -15988.034932  -3413.523064  22599.629760     76.053707
PC44   8061.927346 -26504.293322   3455.306779    509.540960
PC45  25487.090233  -8258.564404  -7764.885298    -96.301384
PC60   7290.637972  41501.362243  -1712.009038     -0.831231
PE02 -26177.094717  -3746.911779  13309.784852    137.064262
PE03 -16828.305779   2471.355959 -24225.968921   -121.692274
PE04  10156.787798 -22951.200907  15696.689469   -426.076906
PE05 -13438.970597 -18985.012477 -18295.011537   4758.814251
PE07   1944.043422  29516.831472   1305.088151   -126.853990
PE08 -10523.376114  22292.700426 -16394.584561   -290.152617
PE09  -1860.600834 -29506.251251  -1200.763104   -486.937001
PE10  13532.122180 -20719.214881  16224.293201   -634.281943
PE11   2997.578313 -18975.801369  22504.702420   2585.627795
PE12  20972.399938 -19221.895071   8197.128676  -1090.395378
PE13  -3601.828247  19109.433044 -22318.273477    -22.397932
PE14   4453.450995 -23381.008659  -5842.887327     81.274093
PE15 -21315.815155  19043.035068  -7684.059611   -110.066145
PE18   3249.250700  31745.050878  -3623.872863    246.010292
PE19  16813.112216    -17.439203  24372.662300    152.529918
PE21  24172.143633  16501.896774   4440.579200   -601.084763
PE25 -23960.416771 -16693.271363  -4829.850771      5.975212
PE26  16444.589800   7722.218940 -23371.236747    489.554417
PE27   7877.823734  20121.836430  20232.107497   -380.253270
PE30 -12990.175014  11783.159905  23839.233804   -425.486374
PE31  12846.456625 -11832.988741 -23889.296757    -26.990599
PE33  26169.449485  -7420.206107 -11671.840514     12.993442
PE34 -26241.358501   7865.859997  11211.488390   -118.136653
PE36 -15876.712423  -8026.127418  23650.380542   -243.991487
PG01 -24751.208718  -6736.926160   7148.733707    255.871737
PG02 -10961.564891  20159.163371 -12637.096004   -414.021832
PG03   1913.152243  16408.147951 -20986.848521    422.757827
PG04  -1407.359677  26205.366449  -3571.584467    387.388949
PG05  14420.338564  -8923.438224  20282.172299   -177.017117
PG06  21370.455390  -1777.548922 -15682.628805    207.377230
PG07   7920.403900  13576.911733  21914.792209    -87.863988
PG08  -7358.732900  21303.087545  13595.525998    239.062633
PG09   7992.977655  24007.376551   7902.402120    242.390623
PG10 -24454.868248 -10673.254484  -1533.521391    -47.282042
PG11  23585.679925 -11596.045643  -3598.708628   -689.579473
PG12   1757.982236 -16097.620964 -21341.200357   -515.761876
PG13  13206.016907 -14060.407632  17940.762399    659.289693
PG14  23072.920764  13273.588909   1832.418360    430.161138
PG15   4579.733687 -22350.294514  12938.236322    172.334933
PG16 -18069.377715   4504.107127  18772.157366   -258.789134
PG17  12769.496379  13797.863921 -18278.689298    691.525297
PG18  -7908.401106 -12659.780238  21977.267398   -627.416551
PG19  14861.063811   4458.322057 -21771.007848    499.235803
PG20  21900.641053  -4427.752176  14304.925028    373.620598
PG21 -14841.212838  19613.701369  -8118.039261    114.159986
PG22  23844.715914   9344.760179  -6017.185970    -29.831431
PG23 -19182.712775 -15751.225432   9756.371287    255.078653
PG24  11512.932241 -20884.613408 -11671.930596   -478.971878
PG25  -9610.450721 -18083.244794 -17389.089113    497.604851
PG26 -25152.641955  -2943.942620   8451.234901    133.671731
PG27 -13003.971920  11096.516485  19922.219418    -28.882391
PG28 -20267.407432    -47.138178 -17175.724283   -297.552321
PG29  -3695.548911 -25663.002988   5401.713988   -593.317872
PG30  17521.618467   5426.270312  19445.391099   -371.017414
PG31 -24010.906596   8493.802007  -8429.605480   -227.281811
PG32 -14372.043736 -11212.559839 -19173.717746   -615.573033
PJ02 -27451.505436  21219.491046  29113.622013     -0.374405
PJ03 -33794.750699  25038.013512   2466.186051      0.684101
PJ04 -19934.313423  25357.234475 -22134.336721     50.383382
PJ07 -25404.741691  33655.912216    -22.368210     -0.040428
PR01 -14840.387499  -9845.301090 -18253.294087     88.995562
PR02  -8535.414851   6940.777020 -22964.117810    -23.365809
PR03   2360.616029  20690.490092 -14643.794830    102.453117
PR04  11415.710056  22762.708548   1420.412374    242.021432
PR05  14450.338823  12698.688056  16752.278897    133.408536
PR06   7658.726669  -8644.103935  22735.254205   -168.492145
PR07  -2794.471666 -21099.115041  14137.814678     84.987529
PR08 -11663.117969 -22649.429337  -1520.345842     -5.185810
PR09  21528.338584  -5388.235442 -12630.211141    193.313281
PR10   8434.306166 -10043.250490 -21865.604320   -179.431836
PR11 -11397.670162 -10372.292331 -20305.784769     20.765809
PR12 -24754.758488  -3958.081464  -4710.254788     41.544700
PR13 -22957.603893   3737.213938  10463.580145    -48.536208
PR14  -6035.931161  10563.028480  22433.963111     26.621764
PR15  12948.937215  10283.643048  19450.610292     78.632628
PR16  24720.060884   3952.481920   5015.081386     26.670024
PR17 -10626.920745  21810.838911  -7945.725687     97.610580
PR18    608.829015  15172.782065 -20472.514691    148.001010
PR19  10675.703740   2912.679567 -22988.073645   -281.035044
PR20  17504.886750 -15292.909541 -10546.666548   -114.830034
PR21  10991.927562 -21686.749786   7659.480884   -110.937783
PR22  -1398.911968 -14645.323244  20862.184569    100.156413
PR23 -12546.722779    344.222904  22192.307769   -124.469456
PR24 -16948.556135  16269.230509   9971.211345    -60.645373
PR25  11184.076021 -21397.548846   8196.697710    -71.478687
PR26 -11277.056405 -22863.975912   -231.925881     -5.877839
EOF
